[{"OBJECT_NAME":"STARLINK-5620","OBJECT_ID":"2023-014Z","EPOCH":"2026-03-09T22:50:04.007328","MEAN_MOTION":14.9832514,"ECCENTRICITY":0.00042346,"INCLINATION":69.9981,"RA_OF_ASC_NODE":83.7072,"ARG_OF_PERICENTER":270.6473,"MEAN_ANOMALY":89.4201,"EPHEMERIS_TYPE":0,"CLASSIFICATION_TYPE":"U","NORAD_CAT_ID":55414,"ELEMENT_SET_NO":999,"REV_AT_EPOCH":17160,"BSTAR":2.1797609e-5,"MEAN_MOTION_DOT":1.67e-6,"MEAN_MOTION_DDOT":0},{"OBJECT_NAME":"DELTA 1 R\/B","OBJECT_ID":"1972-058B","EPOCH":"2026-03-09T22:14:45.150144","MEAN_MOTION":14.86907844,"ECCENTRICITY":0.00837103,"INCLINATION":98.4819,"RA_OF_ASC_NODE":287.4026,"ARG_OF_PERICENTER":251.5853,"MEAN_ANOMALY":107.6247,"EPHEMERIS_TYPE":0,"CLASSIFICATION_TYPE":"U","NORAD_CAT_ID":6127,"ELEMENT_SET_NO":999,"REV_AT_EPOCH":68503,"BSTAR":0.00031466372,"MEAN_MOTION_DOT":2.928e-5,"MEAN_MOTION_DDOT":0}]
